#dP2018  4 14  0  0  0.00000000      96 __u+U IGS08 FIT  IAC
## 1996 518400.00000000   900.00000000 58222 0.0000000000000
+   87   C01C02C03C04C05C06C07C08C09C10C11C12C13C14E01E02E03
+        E04E05E07E08E09E11E12E14E18E19E24E26E30G01G02G03G05
+        G06G07G08G09G10G11G12G13G14G15G16G17G18G19G20G21G22
+        G23G24G25G26G27G28G29G30G31G32J01J02J03R01R02R03R04
+        R05R07R08R09R10R11R13R14R15R16R17R18R19R20R21R22R23
+        R24R26  0  0  0  0  0  0  0  0  0  0  0  0  0  0  0
++        12 12 12 12 12  8  8  8 10  8  7  7  8  7  7  7  7
++         7  7  7  7  7  7  7  7  7  7  7  7  7  3  3  3  3
++         3  3  3  3  3  3  3  3  3  3  3  3  3  3  3  3  3
++         3  3  3  3  3  3  3  3  3  3 10 10 12  5  5  5  5
++         5  5  8  5  5  5  5  5  5  5  5  5  5  5  5  5  5
++         5  8  0  0  0  0  0  0  0  0  0  0  0  0  0  0  0
%c M  cc GPS ccc cccc cccc cccc cccc ccccc ccccc ccccc ccccc
%c cc cc ccc ccc cccc cccc cccc cccc ccccc ccccc ccccc ccccc
%f  1.2500000  1.025000000  0.00000000000  0.000000000000000
%f  0.0000000  0.000000000  0.00000000000  0.000000000000000
%i    0    0    0    0      0      0      0      0         0
%i    0    0    0    0      0      0      0      0         0
/* INFORMATION & ANALYSIS CENTER (IAC)            FINAL DATA
/* S/V CLOCKS ARE ALIGNED TO GPS & GLONASS TIME RESPECTIVELY
/* USING THE BROADCAST EPHEMERIS                            
/* PCV:IGS14_1992 OL/AL:FES2004  NONE     YN ORB:CoN CLK:CoN
*  2018 04 14  0 30  0.00000000
PC01 -32324.506817  27088.221412   -154.232130    608.413731
PC02   4384.614672  41928.537282   -664.066428    607.486325
PC03 -14706.802759  39474.901678   -769.794034   -448.087421
PC04 -39610.127601  14425.052331   -346.113295 999999.999999
PC05  21929.874905  35995.158837   -714.105577     58.334552
PC06 -22981.220021  26111.363607  23860.507796    839.290629
PC07 -13860.312703  38608.162036  10784.594576    190.009650
PC08  -8744.654169  21233.888453 -35259.753672    284.465608
PC09  -5975.955647  26089.392048  32671.991907   -222.891474
PC10  -4715.375466  42072.172727  -1257.306413   -155.843287
PC11   2262.733261  16088.167236 -22621.649138   -467.072114
PC12 -18472.556265   8505.790457 -19090.379813    414.395621
PC13   5567.608094  29983.419437 -28983.911303   -287.836001
PC14  -7607.385683  22675.414963  14390.616068    393.589452
PE01  -8109.171977 -24140.204470  15082.177285   -321.086162
PE02   8133.642880  24114.105436 -15115.747834     10.527721
PE03  11123.868862  13491.536647  23888.521628    -20.726165
PE04 -25783.660337    930.731702 -14496.070264    -13.922976
PE05 -10094.766917  20044.073283  19303.930602    285.023360
PE07  25374.350320 -14848.170504  -3418.141328     50.721113
PE08  25725.240916  -1229.404170  14592.345790   6604.861510
PE09 -25255.036261  15070.072360   3410.228776   6820.795156
PE11 -17500.580979   6827.908971 -22866.578174   1835.551351
PE12 -26242.178164  -9853.299169  -9460.353918   3932.007218
PE14 -20582.372756  13203.014736 -17137.703983   6599.512160
PE18  26761.927222  -2636.729186   5212.308160   6284.136473
PE19  -9196.050726 -14393.614881 -24168.091387     21.310436
PE24 -14131.334978  17177.494531  19504.748804   6760.530049
PE26   -854.037968 -19079.384113  22620.603269   6053.090299
PE30  15782.149098   4866.058774 -24577.235700   5922.591889
PG01  18359.257435   6801.086810  17945.073573    -40.546878
PG02 -14143.168861 -22626.271114   1459.632836    145.394354
PG03  17546.510801  -3389.772025  19614.323383     50.052666
PG05  -7296.102499 -16397.776565 -19612.194926     -9.944116
PG06  -4006.572745 -23093.577925  12503.826575    408.944445
PG07  11859.323147  -9624.292771 -21490.433354    207.902154
PG08  24724.848071   5045.527007  -8470.947278    -97.746394
PG09  22301.470510  -8834.750298 -11450.401587    511.040231
PG10 -10143.562014  24148.327701   3911.049277    178.679906
PG11  23300.780683   6359.373638  10325.580930   -737.444721
PG12 -16355.145172    219.214870  20691.633549    339.735454
PG13 -17822.963777 -12408.685501 -15400.126633    -95.122222
PG14   3520.256296  15361.738726  21688.639369    -96.125234
PG15 -25221.567024  -3708.493032  -8337.143947   -355.491146
PG16   5158.505973  16404.656657 -20265.221505     27.756434
PG17   6188.574845 -14370.846963  21828.650185   -107.180048
PG18  19146.510293  14399.900484  11212.216027     -3.487085
PG19  -1010.515109 -14726.982512  21783.730335   -443.868980
PG20 -17938.324909  10433.611687 -16690.174262    505.717226
PG21  -8645.594419  13587.853381 -20322.219525   -407.733160
PG22  15170.111342   5555.028516  21328.689273   -357.017425
PG23  26780.549903    -65.587754   1115.012363   -217.978191
PG24 -19588.528790  -9456.705198  15312.997796    -48.487931
PG25 -18023.035440  14143.118443  13050.673098   -569.193089
PG26  -2029.627263  23122.114541 -12796.725251   -183.568872
PG27  14685.573823  12226.609660 -18628.891253    370.222558
PG28  13595.902922 -22793.070988   2127.190734    706.051920
PG29 -24482.119320   4982.284835  -9004.554129    466.666523
PG30   5397.742008 -18255.618251 -18457.071181     84.983607
PG31   4309.107303  23505.920569  11166.343167    128.664428
PG32  -7140.343461  14857.220165  20841.217899   -520.852912
PJ01 -25741.929343  32786.791610  -1702.556546   -306.016208
PJ02 -24528.204071  24126.445114  28928.468298      0.810321
PJ03 -34540.614404  17984.335362 -11498.785224    -16.186960
PR01  16718.584255   -724.796890  19250.721927     24.778340
PR02  21390.476630 -13709.055140   2588.756428    304.706486
PR03  12299.108940 -17158.753765 -14305.528444    129.379319
PR04  -4399.333574 -10274.256847 -22911.180546    257.061679
PR05 -17741.160171   2117.329994 -18213.056350   -282.735172
PR07 -11873.921854  17096.456760  14756.877543    -35.069996
PR08   3816.489764  10681.032885  22901.398333 999999.999999
PR09  -9201.791336  11324.834367  20947.736149     34.813516
PR10  -1862.171887  24054.434978   8373.434695     22.454656
PR11   6531.694445  22763.859191  -9522.596993    -26.379431
PR13   8656.199829 -11753.878838 -20941.389270     -9.415440
PR14   2000.955551 -23923.571194  -8603.575912     26.318061
PR15  -4817.319740 -24389.138867   5945.998994     -8.720023
PR16 -11095.424679  -8846.562198  21196.855803     90.171333
PR17   2127.405529 -10757.560912  23043.528736    124.509908
PR18 -14461.475149 -14388.942801  15282.866541    191.804046
PR19 -23161.875880 -10591.764971  -1334.292427    -49.940319
PR20 -17912.535949    374.369049 -18119.316868   -334.262586
PR21  -1809.999478  10791.070189 -23037.162225     20.912947
PR22  16139.131988  14371.034660 -13657.123335    -34.680160
PR23  23548.917161   8438.482847   5017.503864    147.573425
PR24  17420.136035  -1200.385951  18583.641388   -164.972328
PR26 -18315.838659    393.952686 -17742.998788     12.398530
EOF
